{
  "type": "FeatureCollection",
  "features": [
    {
      "type": "Feature",
      "properties": {
        "norad_id": 34590,
        "name": "COSMOS 2251 DEB",
        "group": "cosmos-2251-debris",
        "lat": 22.722879360202864,
        "lon": -52.330603317354324,
        "alt_km": 673.8734505199709,
        "timestamp": "2025-12-24T05:51:20.004168+00:00",
        "meta_object_name": "COSMOS 2251 DEB",
        "meta_object_id": "1993-036WC",
        "meta_epoch": "2025-12-23T21:45:12.965184",
        "meta_mean_motion": 14.54838543,
        "meta_eccentricity": 0.0068062,
        "meta_inclination": 74.0445,
        "meta_ra_of_asc_node": 301.4266,
        "meta_arg_of_pericenter": 67.7675,
        "meta_mean_anomaly": 349.2246,
        "meta_ephemeris_type": 0,
        "meta_classification_type": "U",
        "meta_norad_cat_id": 34590,
        "meta_element_set_no": 999,
        "meta_rev_at_epoch": 89283,
        "meta_bstar": 0.00013788028,
        "meta_mean_motion_dot": 5.8e-06,
        "meta_mean_motion_ddot": 0,
        "tle_line1": "1 34590U 93036WC  25357.90640006  .00000580  00000+0  13788-3 0  9991",
        "tle_line2": "2 34590  74.0445 301.4266 0068062  67.7675 349.2246 14.54838543892834"
      },
      "geometry": {
        "type": "Point",
        "coordinates": [
          -52.330603317354324,
          22.722879360202864
        ]
      }
    },
    {
      "type": "Feature",
      "properties": {
        "norad_id": 34609,
        "name": "COSMOS 2251 DEB",
        "group": "cosmos-2251-debris",
        "lat": -44.04210231608442,
        "lon": -77.9006811055262,
        "alt_km": 800.5855903471711,
        "timestamp": "2025-12-24T05:51:20.004178+00:00",
        "meta_object_name": "COSMOS 2251 DEB",
        "meta_object_id": "1993-036WE",
        "meta_epoch": "2025-12-22T12:18:42.095808",
        "meta_mean_motion": 14.21825611,
        "meta_eccentricity": 0.01456888,
        "meta_inclination": 73.7327,
        "meta_ra_of_asc_node": 88.8594,
        "meta_arg_of_pericenter": 306.8419,
        "meta_mean_anomaly": 64.3001,
        "meta_ephemeris_type": 0,
        "meta_classification_type": "U",
        "meta_norad_cat_id": 34609,
        "meta_element_set_no": 999,
        "meta_rev_at_epoch": 86771,
        "meta_bstar": 0.00071152645,
        "meta_mean_motion_dot": 1.717e-05,
        "meta_mean_motion_ddot": 0,
        "tle_line1": "1 34609U 93036WE  25356.51298722  .00001717  00000+0  71153-3 0  9995",
        "tle_line2": "2 34609  73.7327  88.8594 0145688 306.8419  64.3001 14.21825611867712"
      },
      "geometry": {
        "type": "Point",
        "coordinates": [
          -77.9006811055262,
          -44.04210231608442
        ]
      }
    },
    {
      "type": "Feature",
      "properties": {
        "norad_id": 34610,
        "name": "COSMOS 2251 DEB",
        "group": "cosmos-2251-debris",
        "lat": 33.00148796859449,
        "lon": 51.41544394253116,
        "alt_km": 958.6598344123122,
        "timestamp": "2025-12-24T05:51:20.004188+00:00",
        "meta_object_name": "COSMOS 2251 DEB",
        "meta_object_id": "1993-036WF",
        "meta_epoch": "2025-12-23T10:24:24.827616",
        "meta_mean_motion": 14.07123251,
        "meta_eccentricity": 0.01806356,
        "meta_inclination": 74.0159,
        "meta_ra_of_asc_node": 243.5644,
        "meta_arg_of_pericenter": 11.7227,
        "meta_mean_anomaly": 348.8028,
        "meta_ephemeris_type": 0,
        "meta_classification_type": "U",
        "meta_norad_cat_id": 34610,
        "meta_element_set_no": 999,
        "meta_rev_at_epoch": 85710,
        "meta_bstar": 0.0019617282,
        "meta_mean_motion_dot": 3.785e-05,
        "meta_mean_motion_ddot": 0,
        "tle_line1": "1 34610U 93036WF  25357.43362069  .00003785  00000+0  19617-2 0  9998",
        "tle_line2": "2 34610  74.0159 243.5644 0180635  11.7227 348.8028 14.07123251857103"
      },
      "geometry": {
        "type": "Point",
        "coordinates": [
          51.41544394253116,
          33.00148796859449
        ]
      }
    },
    {
      "type": "Feature",
      "properties": {
        "norad_id": 34611,
        "name": "COSMOS 2251 DEB",
        "group": "cosmos-2251-debris",
        "lat": -73.40910296549794,
        "lon": -27.626471199499665,
        "alt_km": 682.0643994160973,
        "timestamp": "2025-12-24T05:51:20.004198+00:00",
        "meta_object_name": "COSMOS 2251 DEB",
        "meta_object_id": "1993-036WG",
        "meta_epoch": "2025-12-23T07:41:38.868000",
        "meta_mean_motion": 14.69680905,
        "meta_eccentricity": 0.00216141,
        "meta_inclination": 74.0535,
        "meta_ra_of_asc_node": 80.4867,
        "meta_arg_of_pericenter": 118.1387,
        "meta_mean_anomaly": 303.5884,
        "meta_ephemeris_type": 0,
        "meta_classification_type": "U",
        "meta_norad_cat_id": 34611,
        "meta_element_set_no": 999,
        "meta_rev_at_epoch": 88546,
        "meta_bstar": 0.0014827573,
        "meta_mean_motion_dot": 8.84e-05,
        "meta_mean_motion_ddot": 0,
        "tle_line1": "1 34611U 93036WG  25357.32058875  .00008840  00000+0  14828-2 0  9990",
        "tle_line2": "2 34611  74.0535  80.4867 0021614 118.1387 303.5884 14.69680905885467"
      },
      "geometry": {
        "type": "Point",
        "coordinates": [
          -27.626471199499665,
          -73.40910296549794
        ]
      }
    },
    {
      "type": "Feature",
      "properties": {
        "norad_id": 34613,
        "name": "COSMOS 2251 DEB",
        "group": "cosmos-2251-debris",
        "lat": 5.761796867740819,
        "lon": -100.67387151677916,
        "alt_km": 791.1873554796675,
        "timestamp": "2025-12-24T05:51:20.004208+00:00",
        "meta_object_name": "COSMOS 2251 DEB",
        "meta_object_id": "1993-036WJ",
        "meta_epoch": "2025-12-23T12:07:47.047296",
        "meta_mean_motion": 14.26494141,
        "meta_eccentricity": 0.01106207,
        "meta_inclination": 73.9631,
        "meta_ra_of_asc_node": 259.0038,
        "meta_arg_of_pericenter": 88.0259,
        "meta_mean_anomaly": 87.9625,
        "meta_ephemeris_type": 0,
        "meta_classification_type": "U",
        "meta_norad_cat_id": 34613,
        "meta_element_set_no": 999,
        "meta_rev_at_epoch": 86616,
        "meta_bstar": 0.0011878457,
        "meta_mean_motion_dot": 3.029e-05,
        "meta_mean_motion_ddot": 0,
        "tle_line1": "1 34613U 93036WJ  25357.50540564  .00003029  00000+0  11878-2 0  9999",
        "tle_line2": "2 34613  73.9631 259.0038 0110620  88.0259  87.9625 14.26494141866167"
      },
      "geometry": {
        "type": "Point",
        "coordinates": [
          -100.67387151677916,
          5.761796867740819
        ]
      }
    },
    {
      "type": "Feature",
      "properties": {
        "norad_id": 34614,
        "name": "COSMOS 2251 DEB",
        "group": "cosmos-2251-debris",
        "lat": -72.83225585251972,
        "lon": -106.20273670209352,
        "alt_km": 728.4696778572461,
        "timestamp": "2025-12-24T05:51:20.004218+00:00",
        "meta_object_name": "COSMOS 2251 DEB",
        "meta_object_id": "1993-036WK",
        "meta_epoch": "2025-12-18T23:21:59.727744",
        "meta_mean_motion": 14.17670739,
        "meta_eccentricity": 0.0197223,
        "meta_inclination": 73.8822,
        "meta_ra_of_asc_node": 332.666,
        "meta_arg_of_pericenter": 325.6345,
        "meta_mean_anomaly": 63.1604,
        "meta_ephemeris_type": 0,
        "meta_classification_type": "U",
        "meta_norad_cat_id": 34614,
        "meta_element_set_no": 999,
        "meta_rev_at_epoch": 84855,
        "meta_bstar": 0.0046815228,
        "meta_mean_motion_dot": 0.00011531,
        "meta_mean_motion_ddot": 0,
        "tle_line1": "1 34614U 93036WK  25352.97360796  .00011531  00000+0  46815-2 0  9999",
        "tle_line2": "2 34614  73.8822 332.6660 0197223 325.6345  63.1604 14.17670739848553"
      },
      "geometry": {
        "type": "Point",
        "coordinates": [
          -106.20273670209352,
          -72.83225585251972
        ]
      }
    },
    {
      "type": "Feature",
      "properties": {
        "norad_id": 34615,
        "name": "COSMOS 2251 DEB",
        "group": "cosmos-2251-debris",
        "lat": -16.002252537014936,
        "lon": -89.02756632402712,
        "alt_km": 1352.4192006032772,
        "timestamp": "2025-12-24T05:51:20.004228+00:00",
        "meta_object_name": "COSMOS 2251 DEB",
        "meta_object_id": "1993-036WL",
        "meta_epoch": "2025-12-23T05:51:02.282688",
        "meta_mean_motion": 13.52205597,
        "meta_eccentricity": 0.04004644,
        "meta_inclination": 74.0046,
        "meta_ra_of_asc_node": 277.2944,
        "meta_arg_of_pericenter": 182.2976,
        "meta_mean_anomaly": 332.6284,
        "meta_ephemeris_type": 0,
        "meta_classification_type": "U",
        "meta_norad_cat_id": 34615,
        "meta_element_set_no": 999,
        "meta_rev_at_epoch": 82957,
        "meta_bstar": 0.00017989399,
        "meta_mean_motion_dot": 1.76e-06,
        "meta_mean_motion_ddot": 0,
        "tle_line1": "1 34615U 93036WL  25357.24377642  .00000176  00000+0  17989-3 0  9997",
        "tle_line2": "2 34615  74.0046 277.2944 0400464 182.2976 332.6284 13.52205597829578"
      },
      "geometry": {
        "type": "Point",
        "coordinates": [
          -89.02756632402712,
          -16.002252537014936
        ]
      }
    }
  ]
}